KUIPER-00589            
1 69767U 26151E   26194.00002315  .00023767  00000+0  64684-3 0  9998
2 69767  51.8751 190.9976 0005559 135.7716 356.6638 15.37382693  2319
KUIPER-00598            
1 69768U 26151F   26194.00002315  .00023852  00000+0  69470-3 0  9992
2 69768  51.8640 191.1280 0009717 157.3864 268.8568 15.35232872  2229
KUIPER-00604            
1 69769U 26151G   26194.00002315  .00024328  00000+0  64470-3 0  9997
2 69769  51.8792 190.9278 0002885 101.6289  62.6212 15.38203338  2633
KUIPER-00609            
1 69770U 26151H   26194.29223798  .00011956  00000+0  31839-3 0  9996
2 69770  51.8799 189.4791 0000905  28.9449 331.1588 15.38610404  1720
KUIPER-00611            
1 69771U 26151J   26194.29372604  .00014366  00000+0  38267-3 0  9998
2 69771  51.8789 189.4855 0001672  80.8177 279.2999 15.38425503  1720
KUIPER-00612            
1 69772U 26151K   26194.29736866  .00017938  00000+0  48277-3 0  9993
2 69772  51.8788 189.5122 0003769 117.6565 242.4805 15.37923791  1726
KUIPER-00614            
1 69773U 26151L   26194.29585637  .00008927  00000+0  24415-3 0  9998
2 69773  51.8770 189.5007 0004364 140.0329 220.0980 15.38129715  1721
KUIPER-00615            
1 69774U 26151M   26194.30248265  .00012082  00000+0  33639-3 0  9999
2 69774  51.8761 189.5512 0005944 137.1388 223.0063 15.37207881  1725
KUIPER-00616            
1 69775U 26151N   26194.29480908  .00015286  00000+0  40725-3 0  9993
2 69775  51.8766 189.4987 0003799 114.1484 245.9900 15.38364416  1726
KUIPER-00617            
1 69776U 26151P   26194.29826255  .00012892  00000+0  35205-3 0  9990
2 69776  51.8789 189.5209 0003987 127.8987 232.2361 15.37753038  1729
KUIPER-00619            
1 69777U 26151Q   26194.29294257  .00013464  00000+0  35832-3 0  9994
2 69777  51.8783 189.4817 0001186  52.3444 307.7650 15.38512638  1726
KUIPER-00621            
1 69778U 26151R   26194.00002315  .00024713  00000+0  65280-3 0  9995
2 69778  51.8787 190.9223 0002172 107.8465  59.9202 15.38293884  2453
KUIPER-00622            
1 69779U 26151S   26194.00002315  .00024242  00000+0  66844-3 0  9990
2 69779  51.8732 191.0279 0006974 140.4183 337.1868 15.36958169  2317
KUIPER-00623            
1 69780U 26151T   26194.30043767  .00015077  00000+0  41428-3 0  9998
2 69780  51.8757 189.5370 0005612 120.5778 239.5763 15.37411167  1723
KUIPER-00626            
1 69781U 26151U   26194.18125320  .00016768  00000+0  48634-3 0  9995
2 69781  51.8700 190.2321 0010281 158.8690 201.2723 15.35600525  1708
KUIPER-00627            
1 69782U 26151V   26194.00002315  .00026484  00000+0  76450-3 0  9998
2 69782  51.8691 191.1265 0010989 160.0221 268.3994 15.35440922  1308
