{"fetched_at":"2026-07-13T18:16:29.920Z","source":"https://celestrak.org/NORAD/elements/gp.php?GROUP=kuiper&FORMAT=JSON","constellation":"kuiper","records":[{"OBJECT_NAME":"KUIPER-00589","OBJECT_ID":"2026-151E","EPOCH":"2026-07-13T00:00:02.000160","CLASSIFICATION_TYPE":"U","MEAN_MOTION":15.37382693,"ECCENTRICITY":0.0005559,"INCLINATION":51.8751,"RA_OF_ASC_NODE":190.9976,"ARG_OF_PERICENTER":135.7716,"MEAN_ANOMALY":356.6638,"EPHEMERIS_TYPE":0,"NORAD_CAT_ID":69767,"ELEMENT_SET_NO":999,"REV_AT_EPOCH":231,"BSTAR":0.00064684449,"MEAN_MOTION_DOT":0.00023767,"MEAN_MOTION_DDOT":0},{"OBJECT_NAME":"KUIPER-00598","OBJECT_ID":"2026-151F","EPOCH":"2026-07-13T00:00:02.000160","CLASSIFICATION_TYPE":"U","MEAN_MOTION":15.35232872,"ECCENTRICITY":0.00097171,"INCLINATION":51.864,"RA_OF_ASC_NODE":191.128,"ARG_OF_PERICENTER":157.3864,"MEAN_ANOMALY":268.8568,"EPHEMERIS_TYPE":0,"NORAD_CAT_ID":69768,"ELEMENT_SET_NO":999,"REV_AT_EPOCH":222,"BSTAR":0.00069470413,"MEAN_MOTION_DOT":0.00023852,"MEAN_MOTION_DDOT":0},{"OBJECT_NAME":"KUIPER-00604","OBJECT_ID":"2026-151G","EPOCH":"2026-07-13T00:00:02.000160","CLASSIFICATION_TYPE":"U","MEAN_MOTION":15.38203338,"ECCENTRICITY":0.00028851,"INCLINATION":51.8792,"RA_OF_ASC_NODE":190.9278,"ARG_OF_PERICENTER":101.6289,"MEAN_ANOMALY":62.6212,"EPHEMERIS_TYPE":0,"NORAD_CAT_ID":69769,"ELEMENT_SET_NO":999,"REV_AT_EPOCH":263,"BSTAR":0.00064469572,"MEAN_MOTION_DOT":0.00024328,"MEAN_MOTION_DDOT":0},{"OBJECT_NAME":"KUIPER-00609","OBJECT_ID":"2026-151H","EPOCH":"2026-07-13T07:00:49.361472","CLASSIFICATION_TYPE":"U","MEAN_MOTION":15.38610404,"ECCENTRICITY":0.00009054,"INCLINATION":51.8799,"RA_OF_ASC_NODE":189.4791,"ARG_OF_PERICENTER":28.9449,"MEAN_ANOMALY":331.1588,"EPHEMERIS_TYPE":0,"NORAD_CAT_ID":69770,"ELEMENT_SET_NO":999,"REV_AT_EPOCH":172,"BSTAR":0.00031838744,"MEAN_MOTION_DOT":0.00011956,"MEAN_MOTION_DDOT":0},{"OBJECT_NAME":"KUIPER-00611","OBJECT_ID":"2026-151J","EPOCH":"2026-07-13T07:02:57.929856","CLASSIFICATION_TYPE":"U","MEAN_MOTION":15.38425503,"ECCENTRICITY":0.00016729,"INCLINATION":51.8789,"RA_OF_ASC_NODE":189.4855,"ARG_OF_PERICENTER":80.8177,"MEAN_ANOMALY":279.2999,"EPHEMERIS_TYPE":0,"NORAD_CAT_ID":69771,"ELEMENT_SET_NO":999,"REV_AT_EPOCH":172,"BSTAR":0.00038267055,"MEAN_MOTION_DOT":0.00014366,"MEAN_MOTION_DDOT":0},{"OBJECT_NAME":"KUIPER-00612","OBJECT_ID":"2026-151K","EPOCH":"2026-07-13T07:08:12.652224","CLASSIFICATION_TYPE":"U","MEAN_MOTION":15.37923791,"ECCENTRICITY":0.00037692,"INCLINATION":51.8788,"RA_OF_ASC_NODE":189.5122,"ARG_OF_PERICENTER":117.6565,"MEAN_ANOMALY":242.4805,"EPHEMERIS_TYPE":0,"NORAD_CAT_ID":69772,"ELEMENT_SET_NO":999,"REV_AT_EPOCH":172,"BSTAR":0.00048276549,"MEAN_MOTION_DOT":0.00017938,"MEAN_MOTION_DDOT":0},{"OBJECT_NAME":"KUIPER-00614","OBJECT_ID":"2026-151L","EPOCH":"2026-07-13T07:06:01.990368","CLASSIFICATION_TYPE":"U","MEAN_MOTION":15.38129715,"ECCENTRICITY":0.0004364,"INCLINATION":51.877,"RA_OF_ASC_NODE":189.5007,"ARG_OF_PERICENTER":140.0329,"MEAN_ANOMALY":220.098,"EPHEMERIS_TYPE":0,"NORAD_CAT_ID":69773,"ELEMENT_SET_NO":999,"REV_AT_EPOCH":172,"BSTAR":0.00024415169,"MEAN_MOTION_DOT":0.00008927,"MEAN_MOTION_DDOT":0},{"OBJECT_NAME":"KUIPER-00615","OBJECT_ID":"2026-151M","EPOCH":"2026-07-13T07:15:34.500960","CLASSIFICATION_TYPE":"U","MEAN_MOTION":15.37207881,"ECCENTRICITY":0.00059448,"INCLINATION":51.8761,"RA_OF_ASC_NODE":189.5512,"ARG_OF_PERICENTER":137.1388,"MEAN_ANOMALY":223.0063,"EPHEMERIS_TYPE":0,"NORAD_CAT_ID":69774,"ELEMENT_SET_NO":999,"REV_AT_EPOCH":172,"BSTAR":0.00033638574,"MEAN_MOTION_DOT":0.00012082,"MEAN_MOTION_DDOT":0},{"OBJECT_NAME":"KUIPER-00616","OBJECT_ID":"2026-151N","EPOCH":"2026-07-13T07:04:31.504512","CLASSIFICATION_TYPE":"U","MEAN_MOTION":15.38364416,"ECCENTRICITY":0.00037995,"INCLINATION":51.8766,"RA_OF_ASC_NODE":189.4987,"ARG_OF_PERICENTER":114.1484,"MEAN_ANOMALY":245.99,"EPHEMERIS_TYPE":0,"NORAD_CAT_ID":69775,"ELEMENT_SET_NO":999,"REV_AT_EPOCH":172,"BSTAR":0.00040725019,"MEAN_MOTION_DOT":0.00015286,"MEAN_MOTION_DDOT":0},{"OBJECT_NAME":"KUIPER-00617","OBJECT_ID":"2026-151P","EPOCH":"2026-07-13T07:09:29.884320","CLASSIFICATION_TYPE":"U","MEAN_MOTION":15.37753038,"ECCENTRICITY":0.00039873,"INCLINATION":51.8789,"RA_OF_ASC_NODE":189.5209,"ARG_OF_PERICENTER":127.8987,"MEAN_ANOMALY":232.2361,"EPHEMERIS_TYPE":0,"NORAD_CAT_ID":69776,"ELEMENT_SET_NO":999,"REV_AT_EPOCH":172,"BSTAR":0.00035204689,"MEAN_MOTION_DOT":0.00012892,"MEAN_MOTION_DDOT":0},{"OBJECT_NAME":"KUIPER-00619","OBJECT_ID":"2026-151Q","EPOCH":"2026-07-13T07:01:50.238048","CLASSIFICATION_TYPE":"U","MEAN_MOTION":15.38512638,"ECCENTRICITY":0.00011869,"INCLINATION":51.8783,"RA_OF_ASC_NODE":189.4817,"ARG_OF_PERICENTER":52.3444,"MEAN_ANOMALY":307.765,"EPHEMERIS_TYPE":0,"NORAD_CAT_ID":69777,"ELEMENT_SET_NO":999,"REV_AT_EPOCH":172,"BSTAR":0.00035832366,"MEAN_MOTION_DOT":0.00013464,"MEAN_MOTION_DDOT":0},{"OBJECT_NAME":"KUIPER-00621","OBJECT_ID":"2026-151R","EPOCH":"2026-07-13T00:00:02.000160","CLASSIFICATION_TYPE":"U","MEAN_MOTION":15.38293884,"ECCENTRICITY":0.00021728,"INCLINATION":51.8787,"RA_OF_ASC_NODE":190.9223,"ARG_OF_PERICENTER":107.8465,"MEAN_ANOMALY":59.9202,"EPHEMERIS_TYPE":0,"NORAD_CAT_ID":69778,"ELEMENT_SET_NO":999,"REV_AT_EPOCH":245,"BSTAR":0.00065279665,"MEAN_MOTION_DOT":0.00024713,"MEAN_MOTION_DDOT":0},{"OBJECT_NAME":"KUIPER-00622","OBJECT_ID":"2026-151S","EPOCH":"2026-07-13T00:00:02.000160","CLASSIFICATION_TYPE":"U","MEAN_MOTION":15.36958169,"ECCENTRICITY":0.00069748,"INCLINATION":51.8732,"RA_OF_ASC_NODE":191.0279,"ARG_OF_PERICENTER":140.4183,"MEAN_ANOMALY":337.1868,"EPHEMERIS_TYPE":0,"NORAD_CAT_ID":69779,"ELEMENT_SET_NO":999,"REV_AT_EPOCH":231,"BSTAR":0.00066843546,"MEAN_MOTION_DOT":0.00024242,"MEAN_MOTION_DDOT":0},{"OBJECT_NAME":"KUIPER-00623","OBJECT_ID":"2026-151T","EPOCH":"2026-07-13T07:12:37.814688","CLASSIFICATION_TYPE":"U","MEAN_MOTION":15.37411167,"ECCENTRICITY":0.0005612,"INCLINATION":51.8757,"RA_OF_ASC_NODE":189.537,"ARG_OF_PERICENTER":120.5778,"MEAN_ANOMALY":239.5763,"EPHEMERIS_TYPE":0,"NORAD_CAT_ID":69780,"ELEMENT_SET_NO":999,"REV_AT_EPOCH":172,"BSTAR":0.00041428293,"MEAN_MOTION_DOT":0.00015077,"MEAN_MOTION_DDOT":0},{"OBJECT_NAME":"KUIPER-00626","OBJECT_ID":"2026-151U","EPOCH":"2026-07-13T04:21:00.276480","CLASSIFICATION_TYPE":"U","MEAN_MOTION":15.35600525,"ECCENTRICITY":0.00102814,"INCLINATION":51.87,"RA_OF_ASC_NODE":190.2321,"ARG_OF_PERICENTER":158.869,"MEAN_ANOMALY":201.2723,"EPHEMERIS_TYPE":0,"NORAD_CAT_ID":69781,"ELEMENT_SET_NO":999,"REV_AT_EPOCH":170,"BSTAR":0.00048634341,"MEAN_MOTION_DOT":0.00016768,"MEAN_MOTION_DDOT":0},{"OBJECT_NAME":"KUIPER-00627","OBJECT_ID":"2026-151V","EPOCH":"2026-07-13T00:00:02.000160","CLASSIFICATION_TYPE":"U","MEAN_MOTION":15.35440922,"ECCENTRICITY":0.00109896,"INCLINATION":51.8691,"RA_OF_ASC_NODE":191.1265,"ARG_OF_PERICENTER":160.0221,"MEAN_ANOMALY":268.3994,"EPHEMERIS_TYPE":0,"NORAD_CAT_ID":69782,"ELEMENT_SET_NO":999,"REV_AT_EPOCH":130,"BSTAR":0.00076449784,"MEAN_MOTION_DOT":0.00026484,"MEAN_MOTION_DDOT":0}]}
